{"fetched_at":"2026-07-12T07:15:18.323Z","source":"https://celestrak.org/NORAD/elements/gp.php?GROUP=kuiper&FORMAT=JSON","constellation":"kuiper","records":[{"OBJECT_NAME":"KUIPER-00080","OBJECT_ID":"2025-151M","EPOCH":"2026-07-11T04:06:03.063456","CLASSIFICATION_TYPE":"U","MEAN_MOTION":14.79934377,"ECCENTRICITY":0.00007697,"INCLINATION":51.8993,"RA_OF_ASC_NODE":114.5305,"ARG_OF_PERICENTER":103.3687,"MEAN_ANOMALY":256.7362,"EPHEMERIS_TYPE":0,"NORAD_CAT_ID":64827,"ELEMENT_SET_NO":999,"REV_AT_EPOCH":5359,"BSTAR":0.00027322474,"MEAN_MOTION_DOT":0.00001862,"MEAN_MOTION_DDOT":0},{"OBJECT_NAME":"KUIPER-00082","OBJECT_ID":"2025-151N","EPOCH":"2026-07-11T03:36:51.163488","CLASSIFICATION_TYPE":"U","MEAN_MOTION":14.79931189,"ECCENTRICITY":0.00007867,"INCLINATION":51.9013,"RA_OF_ASC_NODE":102.1713,"ARG_OF_PERICENTER":103.8614,"MEAN_ANOMALY":256.2436,"EPHEMERIS_TYPE":0,"NORAD_CAT_ID":64828,"ELEMENT_SET_NO":999,"REV_AT_EPOCH":5376,"BSTAR":0.00028054276,"MEAN_MOTION_DOT":0.00001918,"MEAN_MOTION_DDOT":0},{"OBJECT_NAME":"KUIPER-00083","OBJECT_ID":"2025-151P","EPOCH":"2026-07-09T22:14:49.375104","CLASSIFICATION_TYPE":"U","MEAN_MOTION":14.79934413,"ECCENTRICITY":0.00007886,"INCLINATION":51.8997,"RA_OF_ASC_NODE":115.0674,"ARG_OF_PERICENTER":99.405,"MEAN_ANOMALY":260.7001,"EPHEMERIS_TYPE":0,"NORAD_CAT_ID":64829,"ELEMENT_SET_NO":999,"REV_AT_EPOCH":5466,"BSTAR":0.00034559131,"MEAN_MOTION_DOT":0.00002414,"MEAN_MOTION_DDOT":0},{"OBJECT_NAME":"KUIPER-00084","OBJECT_ID":"2025-151Q","EPOCH":"2026-07-11T04:46:54.621984","CLASSIFICATION_TYPE":"U","MEAN_MOTION":14.7993172,"ECCENTRICITY":0.00010307,"INCLINATION":51.901,"RA_OF_ASC_NODE":119.4266,"ARG_OF_PERICENTER":81.7971,"MEAN_ANOMALY":278.3108,"EPHEMERIS_TYPE":0,"NORAD_CAT_ID":64830,"ELEMENT_SET_NO":999,"REV_AT_EPOCH":5352,"BSTAR":0.00028499147,"MEAN_MOTION_DOT":0.00001952,"MEAN_MOTION_DDOT":0},{"OBJECT_NAME":"KUIPER-00085","OBJECT_ID":"2025-151R","EPOCH":"2026-07-10T04:06:50.240448","CLASSIFICATION_TYPE":"U","MEAN_MOTION":14.79928442,"ECCENTRICITY":0.00007493,"INCLINATION":51.9017,"RA_OF_ASC_NODE":106.5486,"ARG_OF_PERICENTER":111.0355,"MEAN_ANOMALY":249.0688,"EPHEMERIS_TYPE":0,"NORAD_CAT_ID":64831,"ELEMENT_SET_NO":999,"REV_AT_EPOCH":5361,"BSTAR":0.00032636345,"MEAN_MOTION_DOT":0.00002267,"MEAN_MOTION_DDOT":0},{"OBJECT_NAME":"KUIPER-00086","OBJECT_ID":"2025-151S","EPOCH":"2026-07-11T04:09:55.980576","CLASSIFICATION_TYPE":"U","MEAN_MOTION":14.79938371,"ECCENTRICITY":0.00008366,"INCLINATION":51.9005,"RA_OF_ASC_NODE":112.0638,"ARG_OF_PERICENTER":98.4289,"MEAN_ANOMALY":261.6768,"EPHEMERIS_TYPE":0,"NORAD_CAT_ID":64832,"ELEMENT_SET_NO":999,"REV_AT_EPOCH":5362,"BSTAR":0.00029134228,"MEAN_MOTION_DOT":0.00002001,"MEAN_MOTION_DDOT":0},{"OBJECT_NAME":"KUIPER-00087","OBJECT_ID":"2025-151T","EPOCH":"2026-07-11T20:49:31.295712","CLASSIFICATION_TYPE":"U","MEAN_MOTION":14.79936635,"ECCENTRICITY":0.00008125,"INCLINATION":51.8993,"RA_OF_ASC_NODE":91.4565,"ARG_OF_PERICENTER":115.9769,"MEAN_ANOMALY":244.1277,"EPHEMERIS_TYPE":0,"NORAD_CAT_ID":64833,"ELEMENT_SET_NO":999,"REV_AT_EPOCH":5396,"BSTAR":0.0001838811,"MEAN_MOTION_DOT":0.00001181,"MEAN_MOTION_DDOT":0},{"OBJECT_NAME":"KUIPER-00089","OBJECT_ID":"2025-151U","EPOCH":"2026-07-11T02:52:05.991456","CLASSIFICATION_TYPE":"U","MEAN_MOTION":14.79938738,"ECCENTRICITY":0.00007308,"INCLINATION":51.8999,"RA_OF_ASC_NODE":99.788,"ARG_OF_PERICENTER":94.9781,"MEAN_ANOMALY":265.1265,"EPHEMERIS_TYPE":0,"NORAD_CAT_ID":64834,"ELEMENT_SET_NO":999,"REV_AT_EPOCH":5379,"BSTAR":0.00028867012,"MEAN_MOTION_DOT":0.0000198,"MEAN_MOTION_DDOT":0},{"OBJECT_NAME":"KUIPER-00090","OBJECT_ID":"2025-151V","EPOCH":"2026-07-11T20:53:25.466496","CLASSIFICATION_TYPE":"U","MEAN_MOTION":14.79931211,"ECCENTRICITY":0.00006717,"INCLINATION":51.8982,"RA_OF_ASC_NODE":88.9748,"ARG_OF_PERICENTER":106.3149,"MEAN_ANOMALY":253.7887,"EPHEMERIS_TYPE":0,"NORAD_CAT_ID":64835,"ELEMENT_SET_NO":999,"REV_AT_EPOCH":5400,"BSTAR":0.00000568332,"MEAN_MOTION_DOT":-0.00000178,"MEAN_MOTION_DDOT":0},{"OBJECT_NAME":"KUIPER-00091","OBJECT_ID":"2025-151W","EPOCH":"2026-07-10T04:14:35.591712","CLASSIFICATION_TYPE":"U","MEAN_MOTION":14.79926819,"ECCENTRICITY":0.00007607,"INCLINATION":51.9005,"RA_OF_ASC_NODE":101.4722,"ARG_OF_PERICENTER":94.5398,"MEAN_ANOMALY":265.5651,"EPHEMERIS_TYPE":0,"NORAD_CAT_ID":64836,"ELEMENT_SET_NO":999,"REV_AT_EPOCH":5368,"BSTAR":0.00023546355,"MEAN_MOTION_DOT":0.00001574,"MEAN_MOTION_DDOT":0},{"OBJECT_NAME":"KUIPER-00092","OBJECT_ID":"2025-151X","EPOCH":"2026-07-11T22:11:14.516448","CLASSIFICATION_TYPE":"U","MEAN_MOTION":14.79936411,"ECCENTRICITY":0.0000854,"INCLINATION":51.9022,"RA_OF_ASC_NODE":101.2363,"ARG_OF_PERICENTER":100.9706,"MEAN_ANOMALY":259.1352,"EPHEMERIS_TYPE":0,"NORAD_CAT_ID":64837,"ELEMENT_SET_NO":999,"REV_AT_EPOCH":5505,"BSTAR":0.00016304013,"MEAN_MOTION_DOT":0.00001022,"MEAN_MOTION_DDOT":0},{"OBJECT_NAME":"KUIPER-00093","OBJECT_ID":"2025-151Y","EPOCH":"2026-07-10T23:25:57.516096","CLASSIFICATION_TYPE":"U","MEAN_MOTION":14.79938791,"ECCENTRICITY":0.00006558,"INCLINATION":51.8991,"RA_OF_ASC_NODE":107.9021,"ARG_OF_PERICENTER":97.9265,"MEAN_ANOMALY":262.1772,"EPHEMERIS_TYPE":0,"NORAD_CAT_ID":64838,"ELEMENT_SET_NO":999,"REV_AT_EPOCH":5366,"BSTAR":0.00031525764,"MEAN_MOTION_DOT":0.00002183,"MEAN_MOTION_DDOT":0},{"OBJECT_NAME":"KUIPER-00094","OBJECT_ID":"2025-151Z","EPOCH":"2026-07-11T20:02:49.302240","CLASSIFICATION_TYPE":"U","MEAN_MOTION":14.79900748,"ECCENTRICITY":0.00009259,"INCLINATION":51.9042,"RA_OF_ASC_NODE":59.1951,"ARG_OF_PERICENTER":95.5155,"MEAN_ANOMALY":264.5913,"EPHEMERIS_TYPE":0,"NORAD_CAT_ID":64839,"ELEMENT_SET_NO":999,"REV_AT_EPOCH":5442,"BSTAR":0.00029326386,"MEAN_MOTION_DOT":0.00002013,"MEAN_MOTION_DDOT":0},{"OBJECT_NAME":"KUIPER-00081","OBJECT_ID":"2025-171A","EPOCH":"2026-07-11T13:43:14.901600","CLASSIFICATION_TYPE":"U","MEAN_MOTION":14.79933239,"ECCENTRICITY":0.00003973,"INCLINATION":51.9,"RA_OF_ASC_NODE":320.2669,"ARG_OF_PERICENTER":92.5222,"MEAN_ANOMALY":267.5785,"EPHEMERIS_TYPE":0,"NORAD_CAT_ID":65132,"ELEMENT_SET_NO":999,"REV_AT_EPOCH":5138,"BSTAR":0.00005517114,"MEAN_MOTION_DOT":0.000002,"MEAN_MOTION_DDOT":0},{"OBJECT_NAME":"KUIPER-00088","OBJECT_ID":"2025-171B","EPOCH":"2026-07-11T14:53:18.875040","CLASSIFICATION_TYPE":"U","MEAN_MOTION":14.79937371,"ECCENTRICITY":0.00008934,"INCLINATION":51.9001,"RA_OF_ASC_NODE":337.5535,"ARG_OF_PERICENTER":106.6451,"MEAN_ANOMALY":253.461,"EPHEMERIS_TYPE":0,"NORAD_CAT_ID":65133,"ELEMENT_SET_NO":999,"REV_AT_EPOCH":5114,"BSTAR":0.00026474918,"MEAN_MOTION_DOT":0.00001798,"MEAN_MOTION_DDOT":0},{"OBJECT_NAME":"KUIPER-00095","OBJECT_ID":"2025-171C","EPOCH":"2026-07-11T15:24:23.145984","CLASSIFICATION_TYPE":"U","MEAN_MOTION":14.79932949,"ECCENTRICITY":0.00004786,"INCLINATION":51.898,"RA_OF_ASC_NODE":317.5061,"ARG_OF_PERICENTER":108.5667,"MEAN_ANOMALY":251.5347,"EPHEMERIS_TYPE":0,"NORAD_CAT_ID":65134,"ELEMENT_SET_NO":999,"REV_AT_EPOCH":5142,"BSTAR":0.00010402276,"MEAN_MOTION_DOT":0.00000572,"MEAN_MOTION_DDOT":0}]}
