KUIPER-00080            
1 64827U 25151M   26192.17086879  .00001862  00000+0  27322-3 0  9992
2 64827  51.8993 114.5305 0000769 103.3687 256.7362 14.79934377 53590
KUIPER-00082            
1 64828U 25151N   26192.15059217  .00001918  00000+0  28054-3 0  9992
2 64828  51.9013 102.1713 0000786 103.8614 256.2436 14.79931189 53769
KUIPER-00083            
1 64829U 25151P   26190.92696036  .00002414  00000+0  34559-3 0  9991
2 64829  51.8997 115.0674 0000788  99.4050 260.7001 14.79934413 54666
KUIPER-00084            
1 64830U 25151Q   26192.19924331  .00001952  00000+0  28499-3 0  9998
2 64830  51.9010 119.4266 0001030  81.7971 278.3108 14.79931720 53522
KUIPER-00085            
1 64831U 25151R   26191.17141482  .00002267  00000+0  32636-3 0  9992
2 64831  51.9017 106.5486 0000749 111.0355 249.0688 14.79928442 53615
KUIPER-00086            
1 64832U 25151S   26192.17356459  .00002001  00000+0  29134-3 0  9991
2 64832  51.9005 112.0638 0000836  98.4289 261.6768 14.79938371 53627
KUIPER-00087            
1 64833U 25151T   26192.86772333  .00001181  00000+0  18388-3 0  9998
2 64833  51.8993  91.4565 0000812 115.9769 244.1277 14.79936635 53963
KUIPER-00089            
1 64834U 25151U   26192.11951379  .00001980  00000+0  28867-3 0  9996
2 64834  51.8999  99.7880 0000730  94.9781 265.1265 14.79938738 53797
KUIPER-00090            
1 64835U 25151V   26192.87043364 -.00000178  00000+0  56833-5 0  9991
2 64835  51.8982  88.9748 0000671 106.3149 253.7887 14.79931211 54000
KUIPER-00091            
1 64836U 25151W   26191.17680083  .00001574  00000+0  23546-3 0  9992
2 64836  51.9005 101.4722 0000760  94.5398 265.5651 14.79926819 53685
KUIPER-00092            
1 64837U 25151X   26192.92447357  .00001022  00000+0  16304-3 0  9994
2 64837  51.9022 101.2363 0000854 100.9706 259.1352 14.79936411 55052
KUIPER-00093            
1 64838U 25151Y   26191.97636014  .00002183  00000+0  31526-3 0  9991
2 64838  51.8991 107.9021 0000655  97.9265 262.1772 14.79938791 53663
KUIPER-00094            
1 64839U 25151Z   26192.83529285  .00002013  00000+0  29326-3 0  9996
2 64839  51.9042  59.1951 0000925  95.5155 264.5913 14.79900748 54423
KUIPER-00081            
1 65132U 25171A   26192.57170025  .00000200  00000+0  55171-4 0  9994
2 65132  51.9000 320.2669 0000397  92.5222 267.5785 14.79933239 51380
KUIPER-00088            
1 65133U 25171B   26192.62035735  .00001798  00000+0  26475-3 0  9996
2 65133  51.9001 337.5535 0000893 106.6451 253.4610 14.79937371 51143
KUIPER-00095            
1 65134U 25171C   26192.64193456  .00000572  00000+0  10402-3 0  9996
2 65134  51.8980 317.5061 0000478 108.5667 251.5347 14.79932949 51423
